OBJECT_NAME,OBJECT_ID,EPOCH,MEAN_MOTION,ECCENTRICITY,INCLINATION,RA_OF_ASC_NODE,ARG_OF_PERICENTER,MEAN_ANOMALY,EPHEMERIS_TYPE,CLASSIFICATION_TYPE,NORAD_CAT_ID,ELEMENT_SET_NO,REV_AT_EPOCH,BSTAR,MEAN_MOTION_DOT,MEAN_MOTION_DDOT
DUBAISAT-1,2009-041B,2026-06-04T06:26:59.381376,14.75103282,.0011696,98.0036,288.6695,110.3318,249.9149,0,U,35682,999,90319,.17012E-3,.1097E-4,0
OCEANSAT-2,2009-051A,2026-06-04T19:58:48.720576,13.99662648,.0014533,98.2321,143.9165,274.0935,85.8570,0,U,35931,999,87760,.1634E-3,.201E-5,0
WORLDVIEW-2 (WV-2),2009-055A,2026-06-04T15:19:08.541984,14.37895737,.000316,98.4737,229.2606,255.1558,104.9280,0,U,35946,999,87384,.71062E-4,.171E-5,0
SMOS,2009-059A,2026-06-04T02:59:01.518432,14.39765405,.0001346,98.4425,342.6506,92.5370,267.5972,0,U,36036,999,87157,.10636E-3,.29E-5,0
YAOGAN-7,2009-069A,2026-06-04T05:25:11.706816,14.77996399,.0026026,98.0087,41.1721,81.5725,278.8434,0,U,36110,999,88771,.9778E-4,.656E-5,0
TANDEM-X,2010-030A,2026-06-01T10:46:51.497760,15.19149361,.00017833,97.4445,160.3804,80.8335,279.3101,0,U,36605,999,88425,.38591092E-4,.743E-5,0
CARTOSAT-2B,2010-035A,2026-06-04T19:41:48.440256,14.78643938,.001026,97.9953,206.4482,226.6660,133.3697,0,U,36795,999,85802,.7475E-4,.495E-5,0
YAOGAN-10,2010-038A,2026-06-04T21:35:21.254784,14.85308612,.00016,97.8975,179.4013,88.9335,31.7640,0,U,36834,999,85538,.19976E-3,.1663E-4,0
COSMO-SKYMED 4,2010-060A,2026-06-04T19:39:44.932320,14.82160854,.0001444,97.8883,339.5983,83.3427,276.7951,0,U,37216,999,84273,.1079E-3,.807E-5,0
RESOURCESAT-2,2011-015A,2026-06-04T16:50:23.365248,14.21603699,.0010185,98.7646,223.2292,295.7167,64.2958,0,U,37387,999,78440,.69112E-4,.107E-5,0
HAIYANG-2A,2011-043A,2026-06-04T21:10:02.143200,13.74587361,.0006379,99.3393,158.8274,116.6449,243.5354,0,U,37781,999,74496,.14313E-3,.92E-6,0
RASAT,2011-044D,2026-06-04T20:33:36.803808,14.68154149,.0019386,98.0573,247.4415,229.4949,271.0707,0,U,37791,999,79137,.91627E-4,.479E-5,0
SRMSAT,2011-058D,2026-06-04T06:57:29.208960,14.11572942,.0011914,19.9702,137.5332,62.8275,26.7062,0,U,37841,999,75599,.6954E-4,.393E-5,0
PLEIADES 1A,2011-076F,2026-06-04T20:38:11.133312,14.58563080,.0001473,98.1976,231.1275,101.0175,33.1697,0,U,38012,999,77019,.97149E-4,.406E-5,0
ZIYUAN 1-02C (ZY 1-02C),2011-079A,2026-06-04T21:34:57.044640,14.38203960,.0006291,98.4072,223.4640,356.5961,58.2424,0,U,38038,999,75744,.11138E-3,.295E-5,0
ARIRANG-3 (KOMPSAT-3),2012-025B,2026-06-04T20:26:54.374208,14.62195220,.0006082,98.1171,113.5254,141.4046,218.7592,0,U,38338,999,74954,.11909E-3,.553E-5,0
EXACTVIEW-1 (ADS-1B),2012-039C,2026-06-04T06:01:16.394016,14.24980716,.001046,98.9763,272.3498,203.6463,156.4236,0,U,38709,999,72086,.9074E-4,.166E-5,0
SPOT 6,2012-047A,2026-06-04T20:23:23.126208,14.58555548,.0001398,98.2119,223.3019,93.1021,267.0338,0,U,38755,999,73125,.10047E-3,.421E-5,0
PLEIADES 1B,2012-068A,2026-06-04T20:50:35.524608,14.58553085,.0001519,98.1946,231.0891,95.6284,264.5088,0,U,39019,999,71905,.11084E-3,.47E-5,0
GOKTURK 2,2012-073A,2026-06-04T19:21:29.177280,14.75530729,.0001983,97.6819,353.8583,63.7500,296.3914,0,U,39030,999,72268,.96068E-4,.607E-5,0
LANDSAT 8,2013-008A,2026-06-04T15:56:22.114176,14.57110305,.0001451,98.2303,225.9476,97.5037,262.6326,0,U,39084,999,69607,.10148E-3,.412E-5,0
SARAL,2013-009A,2026-06-04T18:01:00.441120,14.32852873,.0001416,98.5557,342.4756,2.9845,357.1348,0,U,39086,999,69382,.4766E-4,.86E-6,0
GAOFEN-1,2013-018A,2026-06-04T20:45:24.624576,14.76521802,.0016093,97.9095,228.1825,309.8191,50.1602,0,U,39150,999,70642,-.44377E-5,-.82E-6,0
VNREDSAT 1,2013-021B,2026-06-04T20:41:16.617696,14.64843710,.0001643,97.9082,209.7508,91.8338,268.3053,0,U,39160,999,69848,.13456E-3,.673E-5,0
ARIRANG-5 (KOMPSAT-5),2013-042A,2026-06-04T19:05:28.689216,15.04544493,.0003773,97.6201,342.6696,155.8482,204.2922,0,U,39227,999,70199,.19184E-3,.2628E-4,0
SKYSAT-A,2013-066C,2026-06-04T07:03:41.079744,15.12901102,.0021293,97.3816,205.1022,3.4569,356.6806,0,U,39418,999,68653,.22851E-3,.398E-4,0
DUBAISAT-2,2013-066D,2026-06-04T19:30:00.159840,15.10085045,.0013193,97.4566,146.2822,77.5962,282.6743,0,U,39419,999,68452,.25301E-3,.4066E-4,0
GPM-CORE,2014-009C,2026-06-04T17:11:05.150112,15.45392148,.0012042,64.9730,349.9172,268.8917,91.0844,0,U,39574,999,69588,.18778E-3,.8797E-4,0
SENTINEL-1A,2014-016A,2026-06-04T21:18:00.211680,14.59198985,.0001439,98.1776,163.5995,79.7155,280.4207,0,U,39634,999,64822,.32557E-4,.108E-5,0
KAZEOSAT 1,2014-024A,2026-06-04T19:26:22.302240,14.42075115,.0001503,98.3205,228.5643,78.2955,281.8403,0,U,39731,999,63677,.9762E-4,.278E-5,0
ALOS-2,2014-029A,2026-06-04T13:25:35.571072,14.79487434,.0001603,97.9217,252.9044,94.8920,265.2475,0,U,39766,999,64971,.24177E-3,.1755E-4,0
