DUBAISAT-1              
1 35682U 09041B   26155.26874284  .00001097  00000+0  17012-3 0  9998
2 35682  98.0036 288.6695 0011696 110.3318 249.9149 14.75103282903199
OCEANSAT-2              
1 35931U 09051A   26155.83250834  .00000201  00000+0  16340-3 0  9997
2 35931  98.2321 143.9165 0014533 274.0935  85.8570 13.99662648877608
WORLDVIEW-2 (WV-2)      
1 35946U 09055A   26155.63829331  .00000171  00000+0  71062-4 0  9998
2 35946  98.4737 229.2606 0003160 255.1558 104.9280 14.37895737873843
SMOS                    
1 36036U 09059A   26155.12432313  .00000290  00000+0  10636-3 0  9998
2 36036  98.4425 342.6506 0001346  92.5370 267.5972 14.39765405871578
YAOGAN-7                
1 36110U 09069A   26155.22582994  .00000656  00000+0  97780-4 0  9996
2 36110  98.0087  41.1721 0026026  81.5725 278.8434 14.77996399887716
TANDEM-X                
1 36605U 10030A   26152.44920715  .00000743  00000+0  38591-4 0  9995
2 36605  97.4445 160.3804 0001783  80.8335 279.3101 15.19149361884253
CARTOSAT-2B             
1 36795U 10035A   26155.82069954  .00000495  00000+0  74750-4 0  9995
2 36795  97.9953 206.4482 0010260 226.6660 133.3697 14.78643938858025
YAOGAN-10               
1 36834U 10038A   26155.89955156  .00001663  00000+0  19976-3 0  9993
2 36834  97.8975 179.4013 0001600  88.9335  31.7640 14.85308612855387
COSMO-SKYMED 4          
1 37216U 10060A   26155.81927005  .00000807  00000+0  10790-3 0  9991
2 37216  97.8883 339.5983 0001444  83.3427 276.7951 14.82160854842734
RESOURCESAT-2           
1 37387U 11015A   26155.70165932  .00000107  00000+0  69112-4 0  9998
2 37387  98.7646 223.2292 0010185 295.7167  64.2958 14.21603699784402
HAIYANG-2A              
1 37781U 11043A   26155.88196925  .00000092  00000+0  14313-3 0  9997
2 37781  99.3393 158.8274 0006379 116.6449 243.5354 13.74587361744966
RASAT                   
1 37791U 11044D   26155.85667597  .00000479  00000+0  91627-4 0  9997
2 37791  98.0573 247.4415 0019386 229.4949 271.0707 14.68154149791378
SRMSAT                  
1 37841U 11058D   26155.28992140  .00000393  00000+0  69540-4 0  9994
2 37841  19.9702 137.5332 0011914  62.8275  26.7062 14.11572942755997
PLEIADES 1A             
1 38012U 11076F   26155.85985108  .00000406  00000+0  97149-4 0  9995
2 38012  98.1976 231.1275 0001473 101.0175  33.1697 14.58563080770190
ZIYUAN 1-02C (ZY 1-02C) 
1 38038U 11079A   26155.89927135  .00000295  00000+0  11138-3 0  9995
2 38038  98.4072 223.4640 0006291 356.5961  58.2424 14.38203960757446
ARIRANG-3 (KOMPSAT-3)   
1 38338U 12025B   26155.85201822  .00000553  00000+0  11909-3 0  9997
2 38338  98.1171 113.5254 0006082 141.4046 218.7592 14.62195220749546
EXACTVIEW-1 (ADS-1B)    
1 38709U 12039C   26155.25088419  .00000166  00000+0  90740-4 0  9994
2 38709  98.9763 272.3498 0010460 203.6463 156.4236 14.24980716720863
SPOT 6                  
1 38755U 12047A   26155.84957322  .00000421  00000+0  10047-3 0  9992
2 38755  98.2119 223.3019 0001398  93.1021 267.0338 14.58555548731254
PLEIADES 1B             
1 39019U 12068A   26155.86846672  .00000470  00000+0  11084-3 0  9992
2 39019  98.1946 231.0891 0001519  95.6284 264.5088 14.58553085719054
GOKTURK 2               
1 39030U 12073A   26155.80658770  .00000607  00000+0  96068-4 0  9993
2 39030  97.6819 353.8583 0001983  63.7500 296.3914 14.75530729722686
LANDSAT 8               
1 39084U 13008A   26155.66414484  .00000412  00000+0  10148-3 0  9995
2 39084  98.2303 225.9476 0001451  97.5037 262.6326 14.57110305696070
SARAL                   
1 39086U 13009A   26155.75069955  .00000086  00000+0  47660-4 0  9994
2 39086  98.5557 342.4756 0001416   2.9845 357.1348 14.32852873693820
GAOFEN-1                
1 39150U 13018A   26155.86486834 -.00000082  00000+0 -44377-5 0  9998
2 39150  97.9095 228.1825 0016093 309.8191  50.1602 14.76521802706426
VNREDSAT 1              
1 39160U 13021B   26155.86199789  .00000673  00000+0  13456-3 0  9999
2 39160  97.9082 209.7508 0001643  91.8338 268.3053 14.64843710698483
ARIRANG-5 (KOMPSAT-5)   
1 39227U 13042A   26155.79547094  .00002628  00000+0  19184-3 0  9990
2 39227  97.6201 342.6696 0003773 155.8482 204.2922 15.04544493701995
SKYSAT-A                
1 39418U 13066C   26155.29422546  .00003980  00000+0  22851-3 0  9994
2 39418  97.3816 205.1022 0021293   3.4569 356.6806 15.12901102686531
DUBAISAT-2              
1 39419U 13066D   26155.81250185  .00004066  00000+0  25301-3 0  9990
2 39419  97.4566 146.2822 0013193  77.5962 282.6743 15.10085045684529
GPM-CORE                
1 39574U 14009C   26155.71603183  .00008797  00000+0  18778-3 0  9994
2 39574  64.9730 349.9172 0012042 268.8917  91.0844 15.45392148695888
SENTINEL-1A             
1 39634U 14016A   26155.88750245  .00000108  00000+0  32557-4 0  9999
2 39634  98.1776 163.5995 0001439  79.7155 280.4207 14.59198985648228
KAZEOSAT 1              
1 39731U 14024A   26155.80998035  .00000278  00000+0  97620-4 0  9999
2 39731  98.3205 228.5643 0001503  78.2955 281.8403 14.42075115636772
ALOS-2                  
1 39766U 14029A   26155.55943948  .00001755  00000+0  24177-3 0  9994
2 39766  97.9217 252.9044 0001603  94.8920 265.2475 14.79487434649715
